{
  "type": "FeatureCollection",
  "features": [
    {
      "type": "Feature",
      "properties": {
        "norad_id": 34492,
        "name": "IRIDIUM 33 DEB",
        "group": "iridium-33-debris",
        "lat": 20.2233979682806,
        "lon": 149.70359053420032,
        "alt_km": 716.1722002506813,
        "timestamp": "2025-12-21T16:47:55.123624+00:00",
        "meta_object_name": "IRIDIUM 33 DEB",
        "meta_object_id": "1997-051GH",
        "meta_epoch": "2025-12-19T10:45:18.347328",
        "meta_mean_motion": 14.25846982,
        "meta_eccentricity": 0.0188646,
        "meta_inclination": 86.4707,
        "meta_ra_of_asc_node": 331.9164,
        "meta_arg_of_pericenter": 216.3823,
        "meta_mean_anomaly": 273.3437,
        "meta_ephemeris_type": 0,
        "meta_classification_type": "U",
        "meta_norad_cat_id": 34492,
        "meta_element_set_no": 999,
        "meta_rev_at_epoch": 85154,
        "meta_bstar": 0.0022012,
        "meta_mean_motion_dot": 6.332e-05,
        "meta_mean_motion_ddot": 0,
        "tle_line1": "1 34492U 97051GH  25353.44812902  .00006332  00000+0  22012-2 0  9994",
        "tle_line2": "2 34492  86.4707 331.9164 0188646 216.3823 273.3437 14.25846982851542"
      },
      "geometry": {
        "type": "Point",
        "coordinates": [
          149.70359053420032,
          20.2233979682806
        ]
      }
    },
    {
      "type": "Feature",
      "properties": {
        "norad_id": 34497,
        "name": "IRIDIUM 33 DEB",
        "group": "iridium-33-debris",
        "lat": 84.90526790886221,
        "lon": -178.33808501921743,
        "alt_km": 837.4343293869033,
        "timestamp": "2025-12-21T16:47:55.123634+00:00",
        "meta_object_name": "IRIDIUM 33 DEB",
        "meta_object_id": "1997-051GN",
        "meta_epoch": "2025-12-21T03:02:18.965760",
        "meta_mean_motion": 14.27475874,
        "meta_eccentricity": 0.00780469,
        "meta_inclination": 86.2771,
        "meta_ra_of_asc_node": 48.8187,
        "meta_arg_of_pericenter": 312.1215,
        "meta_mean_anomaly": 76.3389,
        "meta_ephemeris_type": 0,
        "meta_classification_type": "U",
        "meta_norad_cat_id": 34497,
        "meta_element_set_no": 999,
        "meta_rev_at_epoch": 87003,
        "meta_bstar": 0.00042941712,
        "meta_mean_motion_dot": 1.107e-05,
        "meta_mean_motion_ddot": 0,
        "tle_line1": "1 34497U 97051GN  25355.12660840  .00001107  00000+0  42942-3 0  9998",
        "tle_line2": "2 34497  86.2771  48.8187 0078046 312.1215  76.3389 14.27475874870039"
      },
      "geometry": {
        "type": "Point",
        "coordinates": [
          -178.33808501921743,
          84.90526790886221
        ]
      }
    },
    {
      "type": "Feature",
      "properties": {
        "norad_id": 34508,
        "name": "IRIDIUM 33 DEB",
        "group": "iridium-33-debris",
        "lat": -65.63756694662817,
        "lon": -73.09851237896193,
        "alt_km": 780.1633468724003,
        "timestamp": "2025-12-21T16:47:55.123644+00:00",
        "meta_object_name": "IRIDIUM 33 DEB",
        "meta_object_id": "1997-051GZ",
        "meta_epoch": "2025-12-21T00:38:21.315840",
        "meta_mean_motion": 14.38484044,
        "meta_eccentricity": 0.00666098,
        "meta_inclination": 86.371,
        "meta_ra_of_asc_node": 99.1304,
        "meta_arg_of_pericenter": 146.3518,
        "meta_mean_anomaly": 214.1938,
        "meta_ephemeris_type": 0,
        "meta_classification_type": "U",
        "meta_norad_cat_id": 34508,
        "meta_element_set_no": 999,
        "meta_rev_at_epoch": 87428,
        "meta_bstar": 0.00080829336,
        "meta_mean_motion_dot": 2.552e-05,
        "meta_mean_motion_ddot": 0,
        "tle_line1": "1 34508U 97051GZ  25355.02663560  .00002552  00000+0  80829-3 0  9993",
        "tle_line2": "2 34508  86.3710  99.1304 0066609 146.3518 214.1938 14.38484044874285"
      },
      "geometry": {
        "type": "Point",
        "coordinates": [
          -73.09851237896193,
          -65.63756694662817
        ]
      }
    },
    {
      "type": "Feature",
      "properties": {
        "norad_id": 34521,
        "name": "IRIDIUM 33 DEB",
        "group": "iridium-33-debris",
        "lat": 33.6253830401024,
        "lon": -155.8109575949147,
        "alt_km": 678.5221327623512,
        "timestamp": "2025-12-21T16:47:55.123655+00:00",
        "meta_object_name": "IRIDIUM 33 DEB",
        "meta_object_id": "1997-051HN",
        "meta_epoch": "2025-12-21T09:34:06.569760",
        "meta_mean_motion": 14.63431866,
        "meta_eccentricity": 0.0002611,
        "meta_inclination": 86.3787,
        "meta_ra_of_asc_node": 26.7355,
        "meta_arg_of_pericenter": 178.2335,
        "meta_mean_anomaly": 181.8887,
        "meta_ephemeris_type": 0,
        "meta_classification_type": "U",
        "meta_norad_cat_id": 34521,
        "meta_element_set_no": 999,
        "meta_rev_at_epoch": 88599,
        "meta_bstar": 0.00062299,
        "meta_mean_motion_dot": 3.244e-05,
        "meta_mean_motion_ddot": 0,
        "tle_line1": "1 34521U 97051HN  25355.39868715  .00003244  00000+0  62299-3 0  9997",
        "tle_line2": "2 34521  86.3787  26.7355 0002611 178.2335 181.8887 14.63431866885995"
      },
      "geometry": {
        "type": "Point",
        "coordinates": [
          -155.8109575949147,
          33.6253830401024
        ]
      }
    },
    {
      "type": "Feature",
      "properties": {
        "norad_id": 34525,
        "name": "IRIDIUM 33 DEB",
        "group": "iridium-33-debris",
        "lat": 25.15356550605706,
        "lon": 44.726346237883256,
        "alt_km": 745.1549095340933,
        "timestamp": "2025-12-21T16:47:55.123665+00:00",
        "meta_object_name": "IRIDIUM 33 DEB",
        "meta_object_id": "1997-051HS",
        "meta_epoch": "2025-12-21T03:29:36.485088",
        "meta_mean_motion": 14.42923507,
        "meta_eccentricity": 0.00064437,
        "meta_inclination": 86.372,
        "meta_ra_of_asc_node": 43.2557,
        "meta_arg_of_pericenter": 76.0018,
        "meta_mean_anomaly": 311.4457,
        "meta_ephemeris_type": 0,
        "meta_classification_type": "U",
        "meta_norad_cat_id": 34525,
        "meta_element_set_no": 999,
        "meta_rev_at_epoch": 88209,
        "meta_bstar": 0.00023924914,
        "meta_mean_motion_dot": 8.19e-06,
        "meta_mean_motion_ddot": 0,
        "tle_line1": "1 34525U 97051HS  25355.14556117  .00000819  00000+0  23925-3 0  9992",
        "tle_line2": "2 34525  86.3720  43.2557 0006443  76.0018 311.4457 14.42923507882091"
      },
      "geometry": {
        "type": "Point",
        "coordinates": [
          44.726346237883256,
          25.15356550605706
        ]
      }
    },
    {
      "type": "Feature",
      "properties": {
        "norad_id": 34529,
        "name": "IRIDIUM 33 DEB",
        "group": "iridium-33-debris",
        "lat": -26.293920039656147,
        "lon": -146.60734326408874,
        "alt_km": 759.8723292036639,
        "timestamp": "2025-12-21T16:47:55.123675+00:00",
        "meta_object_name": "IRIDIUM 33 DEB",
        "meta_object_id": "1997-051HW",
        "meta_epoch": "2025-12-21T09:10:35.664672",
        "meta_mean_motion": 14.4062226,
        "meta_eccentricity": 0.0005797,
        "meta_inclination": 86.3634,
        "meta_ra_of_asc_node": 31.7273,
        "meta_arg_of_pericenter": 151.7059,
        "meta_mean_anomaly": 208.4457,
        "meta_ephemeris_type": 0,
        "meta_classification_type": "U",
        "meta_norad_cat_id": 34529,
        "meta_element_set_no": 999,
        "meta_rev_at_epoch": 88266,
        "meta_bstar": 9.6723e-05,
        "meta_mean_motion_dot": 3.28e-06,
        "meta_mean_motion_ddot": 0,
        "tle_line1": "1 34529U 97051HW  25355.38235723  .00000328  00000+0  96723-4 0  9991",
        "tle_line2": "2 34529  86.3634  31.7273 0005797 151.7059 208.4457 14.40622260882661"
      },
      "geometry": {
        "type": "Point",
        "coordinates": [
          -146.60734326408874,
          -26.293920039656147
        ]
      }
    },
    {
      "type": "Feature",
      "properties": {
        "norad_id": 34538,
        "name": "IRIDIUM 33 DEB",
        "group": "iridium-33-debris",
        "lat": 70.09825636916784,
        "lon": 171.2664530225568,
        "alt_km": 765.581803346563,
        "timestamp": "2025-12-21T16:47:55.123685+00:00",
        "meta_object_name": "IRIDIUM 33 DEB",
        "meta_object_id": "1997-051JF",
        "meta_epoch": "2025-12-21T12:00:19.122912",
        "meta_mean_motion": 14.42695029,
        "meta_eccentricity": 0.0032088,
        "meta_inclination": 86.2759,
        "meta_ra_of_asc_node": 1.7183,
        "meta_arg_of_pericenter": 297.7157,
        "meta_mean_anomaly": 215.1252,
        "meta_ephemeris_type": 0,
        "meta_classification_type": "U",
        "meta_norad_cat_id": 34538,
        "meta_element_set_no": 999,
        "meta_rev_at_epoch": 87882,
        "meta_bstar": 0.00071835,
        "meta_mean_motion_dot": 2.423e-05,
        "meta_mean_motion_ddot": 0,
        "tle_line1": "1 34538U 97051JF  25355.50022133  .00002423  00000+0  71835-3 0  9998",
        "tle_line2": "2 34538  86.2759   1.7183 0032088 297.7157 215.1252 14.42695029878824"
      },
      "geometry": {
        "type": "Point",
        "coordinates": [
          171.2664530225568,
          70.09825636916784
        ]
      }
    }
  ]
}